STARLINK-36923          
1 68016U 26040B   26066.16670139 -.00808209  24909-3 -87938-3 0  9990
2 68016  97.2835  14.0878 0000978  92.0736 198.5739 16.09879759  2012
STARLINK-36568          
1 68017U 26040C   26066.16670139 -.00812645  25200-3 -87803-3 0  9996
2 68017  97.2834  14.0885 0000953  95.8575 196.1201 16.09988764  2010
STARLINK-36930          
1 68018U 26040D   26066.16670139 -.00804066  24634-3 -88177-3 0  9990
2 68018  97.2834  14.0872 0000856 105.6386 183.5651 16.09757909  2013
STARLINK-36921          
1 68019U 26040E   26064.99778205  .00013027  24033-5  13001-4 0  9990
2 68019  97.2864  12.7985 0001571 117.0515 243.0930 16.11975695   740
STARLINK-36928          
1 68020U 26040F   26066.16670139 -.00819566  25627-3 -88074-3 0  9993
2 68020  97.2832  14.0886 0000942  93.4218 199.6107 16.10073044  2010
STARLINK-36858          
1 68021U 26040G   26066.16670139 -.00836399  26688-3 -88627-3 0  9999
2 68021  97.2829  14.0895 0000953 105.3197 190.3792 16.10292125  2019
STARLINK-36916          
1 68022U 26040H   26066.16670139 -.00851545  27635-3 -89514-3 0  9999
2 68022  97.2831  14.0906 0001021 106.6160 190.5301 16.10416849  2016
STARLINK-36871          
1 68023U 26040J   26066.16670139 -.00849036  27525-3 -88602-3 0  9997
2 68023  97.2829  14.0908 0000919 103.2269 195.2865 16.10528463  2017
STARLINK-36891          
1 68024U 26040K   26066.16670139 -.00861764  28352-3 -89028-3 0  9992
2 68024  97.2829  14.0920 0001059 108.9688 191.2117 16.10684308  2012
STARLINK-36378          
1 68025U 26040L   26066.16670139 -.00846787  27530-3 -86182-3 0  9996
2 68025  97.2832  14.0932 0000938 100.8884 202.2624 16.10910464  1968
STARLINK-36884          
1 68026U 26040M   26066.16670139 -.00836845  26891-3 -85834-3 0  9993
2 68026  97.2829  14.0922 0000939 103.1520 198.5637 16.10790647  2015
STARLINK-36940          
1 68027U 26040N   26066.16670139 -.00758742  23080-3 -67593-3 0  9992
2 68027  97.2807  14.1066 0000755  92.0061 241.6742 16.12895775  2112
STARLINK-36253          
1 68028U 26040P   26066.16670139 -.01844170  10731-2 -28992-2 0  9992
2 68028  97.2813  14.0794 0001403 115.7809 158.0867 16.04086159  2119
STARLINK-36944          
1 68029U 26040Q   26066.16670139 -.00862205  28507-3 -87122-3 0  9993
2 68029  97.2824  14.0933 0000926  89.6826 214.7604 16.11022208  2015
STARLINK-36942          
1 68030U 26040R   26066.16670139 -.00847589  27661-3 -84998-3 0  9991
2 68030  97.2829  14.0941 0000963 101.7692 204.1383 16.11135382  2014
STARLINK-36913          
1 68031U 26040S   26066.16670139 -.00851860  27966-3 -84730-3 0  9991
2 68031  97.2826  14.0946 0000925 105.1915 202.1606 16.11260202  2017
