[{"OBJECT_NAME":"STARLINK-36923","OBJECT_ID":"2026-040B","EPOCH":"2026-03-07T04:00:03.000096","MEAN_MOTION":16.09879759,"ECCENTRICITY":9.78e-5,"INCLINATION":97.2835,"RA_OF_ASC_NODE":14.0878,"ARG_OF_PERICENTER":92.0736,"MEAN_ANOMALY":198.5739,"EPHEMERIS_TYPE":0,"CLASSIFICATION_TYPE":"U","NORAD_CAT_ID":68016,"ELEMENT_SET_NO":999,"REV_AT_EPOCH":201,"BSTAR":-0.00087938,"MEAN_MOTION_DOT":-0.00808209,"MEAN_MOTION_DDOT":0.00024909},{"OBJECT_NAME":"STARLINK-36568","OBJECT_ID":"2026-040C","EPOCH":"2026-03-07T04:00:03.000096","MEAN_MOTION":16.09988764,"ECCENTRICITY":9.53e-5,"INCLINATION":97.2834,"RA_OF_ASC_NODE":14.0885,"ARG_OF_PERICENTER":95.8575,"MEAN_ANOMALY":196.1201,"EPHEMERIS_TYPE":0,"CLASSIFICATION_TYPE":"U","NORAD_CAT_ID":68017,"ELEMENT_SET_NO":999,"REV_AT_EPOCH":201,"BSTAR":-0.00087803,"MEAN_MOTION_DOT":-0.00812645,"MEAN_MOTION_DDOT":0.000252},{"OBJECT_NAME":"STARLINK-36930","OBJECT_ID":"2026-040D","EPOCH":"2026-03-07T04:00:03.000096","MEAN_MOTION":16.09757909,"ECCENTRICITY":8.56e-5,"INCLINATION":97.2834,"RA_OF_ASC_NODE":14.0872,"ARG_OF_PERICENTER":105.6386,"MEAN_ANOMALY":183.5651,"EPHEMERIS_TYPE":0,"CLASSIFICATION_TYPE":"U","NORAD_CAT_ID":68018,"ELEMENT_SET_NO":999,"REV_AT_EPOCH":201,"BSTAR":-0.00088177,"MEAN_MOTION_DOT":-0.00804066,"MEAN_MOTION_DDOT":0.00024634},{"OBJECT_NAME":"STARLINK-36921","OBJECT_ID":"2026-040E","EPOCH":"2026-03-05T23:56:48.369120","MEAN_MOTION":16.11975695,"ECCENTRICITY":0.00015715,"INCLINATION":97.2864,"RA_OF_ASC_NODE":12.7985,"ARG_OF_PERICENTER":117.0515,"MEAN_ANOMALY":243.093,"EPHEMERIS_TYPE":0,"CLASSIFICATION_TYPE":"U","NORAD_CAT_ID":68019,"ELEMENT_SET_NO":999,"REV_AT_EPOCH":74,"BSTAR":1.3001081e-5,"MEAN_MOTION_DOT":0.00013027,"MEAN_MOTION_DDOT":2.403282e-6},{"OBJECT_NAME":"STARLINK-36928","OBJECT_ID":"2026-040F","EPOCH":"2026-03-07T04:00:03.000096","MEAN_MOTION":16.10073044,"ECCENTRICITY":9.42e-5,"INCLINATION":97.2832,"RA_OF_ASC_NODE":14.0886,"ARG_OF_PERICENTER":93.4218,"MEAN_ANOMALY":199.6107,"EPHEMERIS_TYPE":0,"CLASSIFICATION_TYPE":"U","NORAD_CAT_ID":68020,"ELEMENT_SET_NO":999,"REV_AT_EPOCH":201,"BSTAR":-0.00088074,"MEAN_MOTION_DOT":-0.00819566,"MEAN_MOTION_DDOT":0.00025627},{"OBJECT_NAME":"STARLINK-36858","OBJECT_ID":"2026-040G","EPOCH":"2026-03-07T04:00:03.000096","MEAN_MOTION":16.10292125,"ECCENTRICITY":9.53e-5,"INCLINATION":97.2829,"RA_OF_ASC_NODE":14.0895,"ARG_OF_PERICENTER":105.3197,"MEAN_ANOMALY":190.3792,"EPHEMERIS_TYPE":0,"CLASSIFICATION_TYPE":"U","NORAD_CAT_ID":68021,"ELEMENT_SET_NO":999,"REV_AT_EPOCH":201,"BSTAR":-0.00088627,"MEAN_MOTION_DOT":-0.00836399,"MEAN_MOTION_DDOT":0.00026688},{"OBJECT_NAME":"STARLINK-36916","OBJECT_ID":"2026-040H","EPOCH":"2026-03-07T04:00:03.000096","MEAN_MOTION":16.10416849,"ECCENTRICITY":0.0001021,"INCLINATION":97.2831,"RA_OF_ASC_NODE":14.0906,"ARG_OF_PERICENTER":106.616,"MEAN_ANOMALY":190.5301,"EPHEMERIS_TYPE":0,"CLASSIFICATION_TYPE":"U","NORAD_CAT_ID":68022,"ELEMENT_SET_NO":999,"REV_AT_EPOCH":201,"BSTAR":-0.00089514,"MEAN_MOTION_DOT":-0.00851545,"MEAN_MOTION_DDOT":0.00027635},{"OBJECT_NAME":"STARLINK-36871","OBJECT_ID":"2026-040J","EPOCH":"2026-03-07T04:00:03.000096","MEAN_MOTION":16.10528463,"ECCENTRICITY":9.19e-5,"INCLINATION":97.2829,"RA_OF_ASC_NODE":14.0908,"ARG_OF_PERICENTER":103.2269,"MEAN_ANOMALY":195.2865,"EPHEMERIS_TYPE":0,"CLASSIFICATION_TYPE":"U","NORAD_CAT_ID":68023,"ELEMENT_SET_NO":999,"REV_AT_EPOCH":201,"BSTAR":-0.00088602,"MEAN_MOTION_DOT":-0.00849036,"MEAN_MOTION_DDOT":0.00027525},{"OBJECT_NAME":"STARLINK-36891","OBJECT_ID":"2026-040K","EPOCH":"2026-03-07T04:00:03.000096","MEAN_MOTION":16.10684308,"ECCENTRICITY":0.0001059,"INCLINATION":97.2829,"RA_OF_ASC_NODE":14.092,"ARG_OF_PERICENTER":108.9688,"MEAN_ANOMALY":191.2117,"EPHEMERIS_TYPE":0,"CLASSIFICATION_TYPE":"U","NORAD_CAT_ID":68024,"ELEMENT_SET_NO":999,"REV_AT_EPOCH":201,"BSTAR":-0.00089028,"MEAN_MOTION_DOT":-0.00861764,"MEAN_MOTION_DDOT":0.00028352},{"OBJECT_NAME":"STARLINK-36378","OBJECT_ID":"2026-040L","EPOCH":"2026-03-07T04:00:03.000096","MEAN_MOTION":16.10910464,"ECCENTRICITY":9.38e-5,"INCLINATION":97.2832,"RA_OF_ASC_NODE":14.0932,"ARG_OF_PERICENTER":100.8884,"MEAN_ANOMALY":202.2624,"EPHEMERIS_TYPE":0,"CLASSIFICATION_TYPE":"U","NORAD_CAT_ID":68025,"ELEMENT_SET_NO":999,"REV_AT_EPOCH":196,"BSTAR":-0.00086182,"MEAN_MOTION_DOT":-0.00846787,"MEAN_MOTION_DDOT":0.0002753},{"OBJECT_NAME":"STARLINK-36884","OBJECT_ID":"2026-040M","EPOCH":"2026-03-07T04:00:03.000096","MEAN_MOTION":16.10790647,"ECCENTRICITY":9.39e-5,"INCLINATION":97.2829,"RA_OF_ASC_NODE":14.0922,"ARG_OF_PERICENTER":103.152,"MEAN_ANOMALY":198.5637,"EPHEMERIS_TYPE":0,"CLASSIFICATION_TYPE":"U","NORAD_CAT_ID":68026,"ELEMENT_SET_NO":999,"REV_AT_EPOCH":201,"BSTAR":-0.00085834,"MEAN_MOTION_DOT":-0.00836845,"MEAN_MOTION_DDOT":0.00026891},{"OBJECT_NAME":"STARLINK-36940","OBJECT_ID":"2026-040N","EPOCH":"2026-03-07T04:00:03.000096","MEAN_MOTION":16.12895775,"ECCENTRICITY":7.55e-5,"INCLINATION":97.2807,"RA_OF_ASC_NODE":14.1066,"ARG_OF_PERICENTER":92.0061,"MEAN_ANOMALY":241.6742,"EPHEMERIS_TYPE":0,"CLASSIFICATION_TYPE":"U","NORAD_CAT_ID":68027,"ELEMENT_SET_NO":999,"REV_AT_EPOCH":211,"BSTAR":-0.00067593,"MEAN_MOTION_DOT":-0.00758742,"MEAN_MOTION_DDOT":0.0002308},{"OBJECT_NAME":"STARLINK-36253","OBJECT_ID":"2026-040P","EPOCH":"2026-03-07T04:00:03.000096","MEAN_MOTION":16.04086159,"ECCENTRICITY":0.0001403,"INCLINATION":97.2813,"RA_OF_ASC_NODE":14.0794,"ARG_OF_PERICENTER":115.7809,"MEAN_ANOMALY":158.0867,"EPHEMERIS_TYPE":0,"CLASSIFICATION_TYPE":"U","NORAD_CAT_ID":68028,"ELEMENT_SET_NO":999,"REV_AT_EPOCH":211,"BSTAR":-0.0028992,"MEAN_MOTION_DOT":-0.0184417,"MEAN_MOTION_DDOT":0.0010731},{"OBJECT_NAME":"STARLINK-36944","OBJECT_ID":"2026-040Q","EPOCH":"2026-03-07T04:00:03.000096","MEAN_MOTION":16.11022208,"ECCENTRICITY":9.26e-5,"INCLINATION":97.2824,"RA_OF_ASC_NODE":14.0933,"ARG_OF_PERICENTER":89.6826,"MEAN_ANOMALY":214.7604,"EPHEMERIS_TYPE":0,"CLASSIFICATION_TYPE":"U","NORAD_CAT_ID":68029,"ELEMENT_SET_NO":999,"REV_AT_EPOCH":201,"BSTAR":-0.00087122,"MEAN_MOTION_DOT":-0.00862205,"MEAN_MOTION_DDOT":0.00028507},{"OBJECT_NAME":"STARLINK-36942","OBJECT_ID":"2026-040R","EPOCH":"2026-03-07T04:00:03.000096","MEAN_MOTION":16.11135382,"ECCENTRICITY":9.63e-5,"INCLINATION":97.2829,"RA_OF_ASC_NODE":14.0941,"ARG_OF_PERICENTER":101.7692,"MEAN_ANOMALY":204.1383,"EPHEMERIS_TYPE":0,"CLASSIFICATION_TYPE":"U","NORAD_CAT_ID":68030,"ELEMENT_SET_NO":999,"REV_AT_EPOCH":201,"BSTAR":-0.00084998,"MEAN_MOTION_DOT":-0.00847589,"MEAN_MOTION_DDOT":0.00027661},{"OBJECT_NAME":"STARLINK-36913","OBJECT_ID":"2026-040S","EPOCH":"2026-03-07T04:00:03.000096","MEAN_MOTION":16.11260202,"ECCENTRICITY":9.25e-5,"INCLINATION":97.2826,"RA_OF_ASC_NODE":14.0946,"ARG_OF_PERICENTER":105.1915,"MEAN_ANOMALY":202.1606,"EPHEMERIS_TYPE":0,"CLASSIFICATION_TYPE":"U","NORAD_CAT_ID":68031,"ELEMENT_SET_NO":999,"REV_AT_EPOCH":201,"BSTAR":-0.0008473,"MEAN_MOTION_DOT":-0.0085186,"MEAN_MOTION_DDOT":0.00027966}]
